$$SOE
2460154.500000000, A.D. 2023-Jul-29 00:00:00.0000, -1.865001407300531E+08, -3.215352593981772E+08, 4.446568256438851E+06,
2460161.500000000, A.D. 2023-Aug-05 00:00:00.0000, -1.762357031860335E+08, -3.267380045709677E+08, 2.377525909929648E+06,
2460168.500000000, A.D. 2023-Aug-12 00:00:00.0000, -1.658041308718880E+08, -3.316307791882888E+08, 3.062309317597598E+05,
2460175.500000000, A.D. 2023-Aug-19 00:00:00.0000, -1.552147173016306E+08, -3.362077337231749E+08, -1.765352633967638E+06,
2460182.500000000, A.D. 2023-Aug-26 00:00:00.0000, -1.444769994959005E+08, -3.404633216851341E+08, -3.835245571595088E+06,
2460189.500000000, A.D. 2023-Sep-02 00:00:00.0000, -1.336007479037139E+08, -3.443923116849716E+08, -5.901456082787693E+06,
2460196.500000000, A.D. 2023-Sep-09 00:00:00.0000, -1.225959555987820E+08, -3.479897992343701E+08, -7.961982471592590E+06,
2460203.500000000, A.D. 2023-Sep-16 00:00:00.0000, -1.114728265952012E+08, -3.512512182898791E+08, -1.001481593979482E+07,
2460210.500000000, A.D. 2023-Sep-23 00:00:00.0000, -1.002417628829387E+08, -3.541723522059661E+08, -1.205794350068441E+07,
2460217.500000000, A.D. 2023-Sep-30 00:00:00.0000, -8.891335054320976E+07, -3.567493428579040E+08, -1.408935087554803E+07,
2460224.500000000, A.D. 2023-Oct-07 00:00:00.0000, -7.749834732116966E+07, -3.589786984284337E+08, -1.610702519353826E+07,
2460231.500000000, A.D. 2023-Oct-14 00:00:00.0000, -6.600767064230471E+07, -3.608573031242462E+08, -1.810895785281320E+07,
2460238.500000000, A.D. 2023-Oct-21 00:00:00.0000, -5.445238287460102E+07, -3.623824271770650E+08, -2.009314769942896E+07,
2460245.500000000, A.D. 2023-Oct-28 00:00:00.0000, -4.284367529665634E+07, -3.635517348289537E+08, -2.205760419939423E+07,
2460252.500000000, A.D. 2023-Nov-04 00:00:00.0000, -3.119285206118692E+07, -3.643632910326197E+08, -2.400035054246882E+07,
2460259.500000000, A.D. 2023-Nov-11 00:00:00.0000, -1.951131401897209E+07, -3.648155674287509E+08, -2.591942673293331E+07,
2460266.500000000, A.D. 2023-Nov-18 00:00:00.0000, -7.810542229403215E+06, -3.649074476290317E+08, -2.781289268232293E+07,
2460273.500000000, A.D. 2023-Nov-25 00:00:00.0000, 3.897918867355999E+06, -3.646382317493138E+08, -2.967883129838215E+07,
2460280.500000000, A.D. 2023-Dec-02 00:00:00.0000, 1.560247859523744E+07, -3.640076401756201E+08, -3.151535156317408E+07,
2460287.500000000, A.D. 2023-Dec-09 00:00:00.0000, 2.729151752982782E+07, -3.630158165989901E+08, -3.332059160182184E+07,
2460294.500000000, A.D. 2023-Dec-16 00:00:00.0000, 3.895340556074620E+07, -3.616633302884028E+08, -3.509272175679988E+07,
2460301.500000000, A.D. 2023-Dec-23 00:00:00.0000, 5.057652081936416E+07, -3.599511768996569E+08, -3.682994763317950E+07,
2460308.500000000, A.D. 2023-Dec-30 00:00:00.0000, 6.214926807206491E+07, -3.578807767591903E+08, -3.853051289583369E+07,
2460315.500000000, A.D. 2024-Jan-06 00:00:00.0000, 7.366009474648549E+07, -3.554539729740265E+08, -4.019270183870390E+07,
2460322.500000000, A.D. 2024-Jan-13 00:00:00.0000, 8.509750770443949E+07, -3.526730311701213E+08, -4.181484215501384E+07,
2460329.500000000, A.D. 2024-Jan-20 00:00:00.0000, 9.645009192613140E+07, -3.495406377777427E+08, -4.339530775948837E+07,
2460336.500000000, A.D. 2024-Jan-27 00:00:00.0000, 1.077065290170558E+08, -3.460598962201504E+08, -4.493252141450624E+07,
2460343.500000000, A.D. 2024-Feb-03 00:00:00.0000, 1.188556150496301E+08, -3.422343219662694E+08, -4.642495719010881E+07,
2460350.500000000, A.D. 2024-Feb-10 00:00:00.0000, 1.298862779584377E+08, -3.380678367550449E+08, -4.787114279935531E+07,
2460357.500000000, A.D. 2024-Feb-17 00:00:00.0000, 1.407875945702398E+08, -3.335647620048734E+08, -4.926966181395513E+07,
2460364.500000000, A.D. 2024-Feb-24 00:00:00.0000, 1.515488072479293E+08, -3.287298114185488E+08, -5.061915575560962E+07,
2460371.500000000, A.D. 2024-Mar-02 00:00:00.0000, 1.621593401224128E+08, -3.235680828445232E+08, -5.191832606209888E+07,
2460378.500000000, A.D. 2024-Mar-09 00:00:00.0000, 1.726088149981501E+08, -3.180850494889297E+08, -5.316593593998764E+07,
2460385.500000000, A.D. 2024-Mar-16 00:00:00.0000, 1.828870672768512E+08, -3.122865503161360E+08, -5.436081211827889E+07,
2460392.500000000, A.D. 2024-Mar-23 00:00:00.0000, 1.929841617479130E+08, -3.061787785657899E+08, -5.550184639727369E+07,
2460399.500000000, A.D. 2024-Mar-30 00:00:00.0000, 2.028904059617075E+08, -2.997682684513454E+08, -5.658799678447370E+07,
2460406.500000000, A.D. 2024-Apr-06 00:00:00.0000, 2.125963614056375E+08, -2.930618834486409E+08, -5.761828851320270E+07,
2460413.500000000, A.D. 2024-Apr-13 00:00:00.0000, 2.220928560043091E+08, -2.860668053861786E+08, -5.859181520070550E+07,
2460420.500000000, A.D. 2024-Apr-20 00:00:00.0000, 2.313709969643930E+08, -2.787905217160975E+08, -5.950773984062503E+07,
2460427.500000000, A.D. 2024-Apr-27 00:00:00.0000, 2.404221824199266E+08, -2.712408115843550E+08, -6.036529553757536E+07,
2460434.500000000, A.D. 2024-May-04 00:00:00.0000, 2.492381119407721E+08, -2.634257314586614E+08, -6.116378605000800E+07,
2460441.500000000, A.D. 2024-May-11 00:00:00.0000, 2.578107961216533E+08, -2.553536004697273E+08, -6.190258617237210E+07,
2460448.500000000, A.D. 2024-May-18 00:00:00.0000, 2.661325653176583E+08, -2.470329854977938E+08, -6.258114196373634E+07,
2460455.500000000, A.D. 2024-May-25 00:00:00.0000, 2.741960775389884E+08, -2.384726860653476E+08, -6.319897082777938E+07,
2460462.500000000, A.D. 2024-Jun-01 00:00:00.0000, 2.819943255562994E+08, -2.296817191464071E+08, -6.375566145681092E+07,
2460469.500000000, A.D. 2024-Jun-08 00:00:00.0000, 2.895206434591498E+08, -2.206693039664489E+08, -6.425087366726449E+07,
2460476.500000000, A.D. 2024-Jun-15 00:00:00.0000, 2.967687130701973E+08, -2.114448462991910E+08, -6.468433812294991E+07,
2460483.500000000, A.D. 2024-Jun-22 00:00:00.0000, 3.037325692182011E+08, -2.020179211392756E+08, -6.505585576338834E+07,
2460490.500000000, A.D. 2024-Jun-29 00:00:00.0000, 3.104066017565551E+08, -1.923982556253722E+08, -6.536529689702944E+07,
2460497.500000000, A.D. 2024-Jul-06 00:00:00.0000, 3.167855569809974E+08, -1.825957147328262E+08, -6.561260040885478E+07,
2460504.500000000, A.D. 2024-Jul-13 00:00:00.0000, 3.228645404099863E+08, -1.726202869564830E+08, -6.579777303596250E+07,
2460511.500000000, A.D. 2024-Jul-20 00:00:00.0000, 3.286390189616829E+08, -1.624820688799620E+08, -6.592088844185445E+07,
2460518.500000000, A.D. 2024-Jul-27 00:00:00.0000, 3.341048218934729E+08, -1.521912496345185E+08, -6.598208611484107E+07,
2460525.500000000, A.D. 2024-Aug-03 00:00:00.0000, 3.392581408007756E+08, -1.417580956634482E+08, -6.598157015358761E+07,
2460532.500000000, A.D. 2024-Aug-10 00:00:00.0000, 3.440955288668708E+08, -1.311929358347886E+08, -6.591960796290944E+07,
2460539.500000000, A.D. 2024-Aug-17 00:00:00.0000, 3.486138994390157E+08, -1.205061469163963E+08, -6.579652887004207E+07,
2460546.500000000, A.D. 2024-Aug-24 00:00:00.0000, 3.528105239879591E+08, -1.097081394692235E+08, -6.561272267336586E+07,
2460553.500000000, A.D. 2024-Aug-31 00:00:00.0000, 3.566830295955191E+08, -9.880934425131944E+07, -6.536863814633473E+07,
2460560.500000000, A.D. 2024-Sep-07 00:00:00.0000, 3.602293963635469E+08, -8.782019903266039E+07, -6.506478152598207E+07,
2460567.500000000, A.D. 2024-Sep-14 00:00:00.0000, 3.634479548598987E+08, -7.675113484544295E+07, -6.470171491842942E+07,
2460574.500000000, A.D. 2024-Sep-21 00:00:00.0000, 3.663373816093603E+08, -6.561256127645946E+07, -6.428005440897851E+07,
2460581.500000000, A.D. 2024-Sep-28 00:00:00.0000, 3.688966921781346E+08, -5.441485404918244E+07, -6.380046810354587E+07,
2460588.500000000, A.D. 2024-Oct-05 00:00:00.0000, 3.711252355532255E+08, -4.316834490868148E+07, -6.326367444452544E+07,
2460595.500000000, A.D. 2024-Oct-12 00:00:00.0000, 3.730226894902229E+08, -3.188331083938206E+07, -6.267044053142124E+07,
2460602.500000000, A.D. 2024-Oct-19 00:00:00.0000, 3.745890551156826E+08, -2.056996289593726E+07, -6.202158031537643E+07,
2460609.500000000, A.D. 2024-Oct-26 00:00:00.0000, 3.758246507883376E+08, -9.238435457055051E+06, -6.131795273738141E+07,
2460616.500000000, A.D. 2024-Nov-02 00:00:00.0000, 3.767301055117044E+08, 2.101223943072889E+06, -6.056045985243821E+07,
2460623.500000000, A.D. 2024-Nov-09 00:00:00.0000, 3.773063520288753E+08, 1.343906422267040E+07, -5.975004495276107E+07,
2460630.500000000, A.D. 2024-Nov-16 00:00:00.0000, 3.775546196588421E+08, 2.476523979828373E+07, -5.888769069779367E+07,
2460637.500000000, A.D. 2024-Nov-23 00:00:00.0000, 3.774764269538745E+08, 3.607001901858511E+07, -5.797441726443066E+07,
2460644.500000000, A.D. 2024-Nov-30 00:00:00.0000, 3.770735744165037E+08, 4.734379194344505E+07, -5.701128054435996E+07,
2460651.500000000, A.D. 2024-Dec-07 00:00:00.0000, 3.763481377200643E+08, 5.857707788983236E+07, -5.599937039551958E+07,
2460658.500000000, A.D. 2024-Dec-14 00:00:00.0000, 3.753024607640476E+08, 6.976053397543088E+07, -5.493980878609514E+07,
2460665.500000000, A.D. 2024-Dec-21 00:00:00.0000, 3.739391462710060E+08, 8.088496343211652E+07, -5.383374772264154E+07,
2460672.500000000, A.D. 2024-Dec-28 00:00:00.0000, 3.722610459261380E+08, 9.194132073323031E+07, -5.268236738993328E+07,
2460679.500000000, A.D. 2025-Jan-04 00:00:00.0000, 3.702712526812548E+08, 1.029207159222704E+08, -5.148687455006790E+07,
2460686.500000000, A.D. 2025-Jan-11 00:00:00.0000, 3.679730934269975E+08, 1.138144198159377E+08, -5.024850090146677E+07,
2460693.500000000, A.D. 2025-Jan-18 00:00:00.0000, 3.653701211418164E+08, 1.246138691745247E+08, -4.896850139187013E+07,
2460700.500000000, A.D. 2025-Jan-25 00:00:00.0000, 3.624661067833526E+08, 1.353106713762127E+08, -4.764815254867964E+07,
2460707.500000000, A.D. 2025-Feb-01 00:00:00.0000, 3.592650311303877E+08, 1.458966085771737E+08, -4.628875084795497E+07,
2460714.500000000, A.D. 2025-Feb-08 00:00:00.0000, 3.557710766501456E+08, 1.563636413905694E+08, -4.489161112687467E+07,
$$EOE